[{"alpha2":"aa","alpha3":"aar","name":"Afar","name2":"Afar","nativeName":"Afar","family":"Afro-Asiatic"},{"alpha2":"ab","alpha3":"abk","name":"Abkhaz","name2":"Abkhazian","nativeName":"Аҧсуа","family":"Northwest Caucasian"},{"alpha2":"ae","alpha3":"ave","name":"Avestan","name2":"Avestan","nativeName":"avesta","family":"Indo-European"},{"alpha2":"af","alpha3":"afr","name":"Afrikaans","name2":"Afrikaans","nativeName":"Afrikaans","family":"Indo-European"},{"alpha2":"ak","alpha3":"aka","name":"Akan","name2":"Akan","nativeName":"Akana","family":"Niger–Congo"},{"alpha2":"am","alpha3":"amh","name":"Amharic","name2":"Amharic","nativeName":"አማርኛ","family":"Afro-Asiatic"},{"alpha2":"an","alpha3":"arg","name":"Aragonese","name2":"Aragonese","nativeName":"Aragonés","family":"Indo-European"},{"alpha2":"av","alpha3":"ava","name":"Avaric","name2":"Avar","nativeName":"Авар","family":"Northeast Caucasian"},{"alpha2":"as","alpha3":"asm","name":"Assamese","name2":"Assamese","nativeName":"অসমীয়া","family":"Indo-European"},{"alpha2":"ar","alpha3":"ara","name":"Arabic","name2":"Arabic","nativeName":"العربية","family":"Afro-Asiatic"},{"alpha2":"az","alpha3":"aze","name":"Azerbaijani","name2":"Azerbaijani","nativeName":"Azərbaycanca / آذربايجان","family":"Turkic"},{"alpha2":"ay","alpha3":"aym","name":"Aymara","name2":"Aymara","nativeName":"Aymar","family":"Aymaran"},{"alpha2":"ba","alpha3":"bak","name":"Bashkir","name2":"Bashkir","nativeName":"Башҡорт","family":"Turkic"},{"alpha2":"be","alpha3":"bel","name":"Belarusian","name2":"Belarusian","nativeName":"Беларуская","family":"Indo-European"},{"alpha2":"bg","alpha3":"bul","name":"Bulgarian","name2":"Bulgarian","nativeName":"Български","family":"Indo-European"},{"alpha2":"bh","alpha3":"bih","name":"Bihari","name2":"Bihari","nativeName":"भोजपुरी","family":"Indo-European"},{"alpha2":"bi","alpha3":"bis","name":"Bislama","name2":"Bislama","nativeName":"Bislama","family":"Creole"},{"alpha2":"bm","alpha3":"bam","name":"Bambara","name2":"Bambara","nativeName":"Bamanankan","family":"Niger–Congo"},{"alpha2":"bn","alpha3":"ben","name":"Bengali, Bangla","name2":"Bengali","nativeName":"বাংলা","family":"Indo-European"},{"alpha2":"bo","alpha3":"bod","name":"Tibetan Standard, Tibetan, Central","name2":"Tibetan","nativeName":"བོད་ཡིག / Bod skad","family":"Sino-Tibetan"},{"alpha2":"br","alpha3":"bre","name":"Breton","name2":"Breton","nativeName":"Brezhoneg","family":"Indo-European"},{"alpha2":"bs","alpha3":"bos","name":"Bosnian","name2":"Bosnian","nativeName":"Bosanski","family":"Indo-European"},{"alpha2":"ca","alpha3":"cat","name":"Catalan","name2":"Catalan","nativeName":"Català","family":"Indo-European"},{"alpha2":"ce","alpha3":"che","name":"Chechen","name2":"Chechen","nativeName":"Нохчийн","family":"Northeast Caucasian"},{"alpha2":"ch","alpha3":"cha","name":"Chamorro","name2":"Chamorro","nativeName":"Chamoru","family":"Austronesian"},{"alpha2":"co","alpha3":"cos","name":"Corsican","name2":"Corsican","nativeName":"Corsu","family":"Indo-European"},{"alpha2":"cr","alpha3":"cre","name":"Cree","name2":"Cree","nativeName":"Nehiyaw","family":"Algonquian"},{"alpha2":"cs","alpha3":"ces","name":"Czech","name2":"Czech","nativeName":"Čeština","family":"Indo-European"},{"alpha2":"cu","alpha3":"chu","name":"Old Church Slavonic, Church Slavonic, Old Bulgarian","name2":"Old Church Slavonic / Old Bulgarian","nativeName":"словѣньскъ / slověnĭskŭ","family":"Indo-European"},{"alpha2":"cv","alpha3":"chv","name":"Chuvash","name2":"Chuvash","nativeName":"Чăваш","family":"Turkic"},{"alpha2":"cy","alpha3":"cym","name":"Welsh","name2":"Welsh","nativeName":"Cymraeg","family":"Indo-European"},{"alpha2":"da","alpha3":"dan","name":"Danish","name2":"Danish","nativeName":"Dansk","family":"Indo-European"},{"alpha2":"de","alpha3":"deu","name":"German","name2":"German","nativeName":"Deutsch","family":"Indo-European"},{"alpha2":"dv","alpha3":"div","name":"Divehi, Dhivehi, Maldivian","name2":"Divehi","nativeName":"ދިވެހިބަސް","family":"Indo-European"},{"alpha2":"dz","alpha3":"dzo","name":"Dzongkha","name2":"Dzongkha","nativeName":"ཇོང་ཁ","family":"Sino-Tibetan"},{"alpha2":"ee","alpha3":"ewe","name":"Ewe","name2":"Ewe","nativeName":"Ɛʋɛ","family":"Niger–Congo"},{"alpha2":"el","alpha3":"ell","name":"Greek (modern)","name2":"Greek","nativeName":"Ελληνικά","family":"Indo-European"},{"alpha2":"en","alpha3":"eng","name":"English","name2":"English","nativeName":"English","family":"Indo-European"},{"alpha2":"eo","alpha3":"epo","name":"Esperanto","name2":"Esperanto","nativeName":"Esperanto","family":"Constructed"},{"alpha2":"es","alpha3":"spa","name":"Spanish","name2":"Spanish","nativeName":"Español","family":"Indo-European"},{"alpha2":"et","alpha3":"est","name":"Estonian","name2":"Estonian","nativeName":"Eesti","family":"Uralic"},{"alpha2":"eu","alpha3":"eus","name":"Basque","name2":"Basque","nativeName":"Euskara","family":"Language isolate"},{"alpha2":"fa","alpha3":"fas","name":"Persian (Farsi)","name2":"Persian","nativeName":"فارسی","family":"Indo-European"},{"alpha2":"ff","alpha3":"ful","name":"Fula, Fulah, Pulaar, Pular","name2":"Peul","nativeName":"Fulfulde","family":"Niger–Congo"},{"alpha2":"fi","alpha3":"fin","name":"Finnish","name2":"Finnish","nativeName":"Suomi","family":"Uralic"},{"alpha2":"fj","alpha3":"fij","name":"Fijian","name2":"Fijian","nativeName":"Na Vosa Vakaviti","family":"Austronesian"},{"alpha2":"fo","alpha3":"fao","name":"Faroese","name2":"Faroese","nativeName":"Føroyskt","family":"Indo-European"},{"alpha2":"fr","alpha3":"fra","name":"French","name2":"French","nativeName":"Français","family":"Indo-European"},{"alpha2":"fy","alpha3":"fry","name":"Western Frisian","name2":"West Frisian","nativeName":"Frysk","family":"Indo-European"},{"alpha2":"ga","alpha3":"gle","name":"Irish","name2":"Irish","nativeName":"Gaeilge","family":"Indo-European"},{"alpha2":"gd","alpha3":"gla","name":"Scottish Gaelic, Gaelic","name2":"Scottish Gaelic","nativeName":"Gàidhlig","family":"Indo-European"},{"alpha2":"gl","alpha3":"glg","name":"Galician","name2":"Galician","nativeName":"Galego","family":"Indo-European"},{"alpha2":"gn","alpha3":"grn","name":"Guaraní","name2":"Guarani","nativeName":"Avañe'ẽ","family":"Tupian"},{"alpha2":"gu","alpha3":"guj","name":"Gujarati","name2":"Gujarati","nativeName":"ગુજરાતી","family":"Indo-European"},{"alpha2":"gv","alpha3":"glv","name":"Manx","name2":"Manx","nativeName":"Gaelg","family":"Indo-European"},{"alpha2":"ha","alpha3":"hau","name":"Hausa","name2":"Hausa","nativeName":"هَوُسَ","family":"Afro-Asiatic"},{"alpha2":"he","alpha3":"heb","name":"Hebrew (modern)","name2":"Hebrew","nativeName":"עברית","family":"Afro-Asiatic"},{"alpha2":"hi","alpha3":"hin","name":"Hindi","name2":"Hindi","nativeName":"हिन्दी","family":"Indo-European"},{"alpha2":"ho","alpha3":"hmo","name":"Hiri Motu","name2":"Hiri Motu","nativeName":"Hiri Motu","family":"Austronesian"},{"alpha2":"hr","alpha3":"hrv","name":"Croatian","name2":"Croatian","nativeName":"Hrvatski","family":"Indo-European"},{"alpha2":"ht","alpha3":"hat","name":"Haitian, Haitian Creole","name2":"Haitian","nativeName":"Krèyol ayisyen","family":"Creole"},{"alpha2":"hu","alpha3":"hun","name":"Hungarian","name2":"Hungarian","nativeName":"Magyar","family":"Uralic"},{"alpha2":"hy","alpha3":"hye","name":"Armenian","name2":"Armenian","nativeName":"Հայերեն","family":"Indo-European"},{"alpha2":"hz","alpha3":"her","name":"Herero","name2":"Herero","nativeName":"Otsiherero","family":"Niger–Congo"},{"alpha2":"ia","alpha3":"ina","name":"Interlingua","name2":"Interlingua","nativeName":"Interlingua","family":"Constructed"},{"alpha2":"id","alpha3":"ind","name":"Indonesian","name2":"Indonesian","nativeName":"Bahasa Indonesia","family":"Austronesian"},{"alpha2":"ie","alpha3":"ile","name":"Interlingue","name2":"Interlingue","nativeName":"Interlingue","family":"Constructed"},{"alpha2":"ig","alpha3":"ibo","name":"Igbo","name2":"Igbo","nativeName":"Igbo","family":"Niger–Congo"},{"alpha2":"ii","alpha3":"iii","name":"Nuosu","name2":"Sichuan Yi","nativeName":"ꆇꉙ / 四川彝语","family":"Sino-Tibetan"},{"alpha2":"ik","alpha3":"ipk","name":"Inupiaq","name2":"Inupiak","nativeName":"Iñupiak","family":"Eskimo–Aleut"},{"alpha2":"io","alpha3":"ido","name":"Ido","name2":"Ido","nativeName":"Ido","family":"Constructed"},{"alpha2":"is","alpha3":"isl","name":"Icelandic","name2":"Icelandic","nativeName":"Íslenska","family":"Indo-European"},{"alpha2":"it","alpha3":"ita","name":"Italian","name2":"Italian","nativeName":"Italiano","family":"Indo-European"},{"alpha2":"iu","alpha3":"iku","name":"Inuktitut","name2":"Inuktitut","nativeName":"ᐃᓄᒃᑎᑐᑦ","family":"Eskimo–Aleut"},{"alpha2":"ja","alpha3":"jpn","name":"Japanese","name2":"Japanese","nativeName":"日本語","family":"Japonic"},{"alpha2":"jv","alpha3":"jav","name":"Javanese","name2":"Javanese","nativeName":"Basa Jawa","family":"Austronesian"},{"alpha2":"ka","alpha3":"kat","name":"Georgian","name2":"Georgian","nativeName":"ქართული","family":"South Caucasian"},{"alpha2":"kg","alpha3":"kon","name":"Kongo","name2":"Kongo","nativeName":"KiKongo","family":"Niger–Congo"},{"alpha2":"ki","alpha3":"kik","name":"Kikuyu, Gikuyu","name2":"Kikuyu","nativeName":"Gĩkũyũ","family":"Niger–Congo"},{"alpha2":"kj","alpha3":"kua","name":"Kwanyama, Kuanyama","name2":"Kuanyama","nativeName":"Kuanyama","family":"Niger–Congo"},{"alpha2":"kk","alpha3":"kaz","name":"Kazakh","name2":"Kazakh","nativeName":"Қазақша","family":"Turkic"},{"alpha2":"kl","alpha3":"kal","name":"Kalaallisut, Greenlandic","name2":"Greenlandic","nativeName":"Kalaallisut","family":"Eskimo–Aleut"},{"alpha2":"km","alpha3":"khm","name":"Khmer","name2":"Cambodian","nativeName":"ភាសាខ្មែរ","family":"Austroasiatic"},{"alpha2":"kn","alpha3":"kan","name":"Kannada","name2":"Kannada","nativeName":"ಕನ್ನಡ","family":"Dravidian"},{"alpha2":"ko","alpha3":"kor","name":"Korean","name2":"Korean","nativeName":"한국어","family":"Koreanic"},{"alpha2":"kr","alpha3":"kau","name":"Kanuri","name2":"Kanuri","nativeName":"Kanuri","family":"Nilo-Saharan"},{"alpha2":"ks","alpha3":"kas","name":"Kashmiri","name2":"Kashmiri","nativeName":"कश्मीरी / كشميري","family":"Indo-European"},{"alpha2":"ku","alpha3":"kur","name":"Kurdish","name2":"Kurdish","nativeName":"Kurdî / كوردی","family":"Indo-European"},{"alpha2":"kv","alpha3":"kom","name":"Komi","name2":"Komi","nativeName":"Коми","family":"Uralic"},{"alpha2":"kw","alpha3":"cor","name":"Cornish","name2":"Cornish","nativeName":"Kernewek","family":"Indo-European"},{"alpha2":"ky","alpha3":"kir","name":"Kyrgyz","name2":"Kyrgyz","nativeName":"Кыргызча","family":"Turkic"},{"alpha2":"la","alpha3":"lat","name":"Latin","name2":"Latin","nativeName":"Latina","family":"Indo-European"},{"alpha2":"lb","alpha3":"ltz","name":"Luxembourgish, Letzeburgesch","name2":"Luxembourgish","nativeName":"Lëtzebuergesch","family":"Indo-European"},{"alpha2":"lg","alpha3":"lug","name":"Ganda","name2":"Ganda","nativeName":"Luganda","family":"Niger–Congo"},{"alpha2":"li","alpha3":"lim","name":"Limburgish, Limburgan, Limburger","name2":"Limburgian","nativeName":"Limburgs","family":"Indo-European"},{"alpha2":"ln","alpha3":"lin","name":"Lingala","name2":"Lingala","nativeName":"Lingála","family":"Niger–Congo"},{"alpha2":"lo","alpha3":"lao","name":"Lao","name2":"Laotian","nativeName":"ລາວ / Pha xa lao","family":"Tai–Kadai"},{"alpha2":"lt","alpha3":"lit","name":"Lithuanian","name2":"Lithuanian","nativeName":"Lietuvių","family":"Indo-European"},{"alpha2":"lu","alpha3":"lub","name":"Luba-Katanga","name2":"Luba-Katanga","nativeName":"Tshiluba","family":"Niger–Congo"},{"alpha2":"lv","alpha3":"lav","name":"Latvian","name2":"Latvian","nativeName":"Latviešu","family":"Indo-European"},{"alpha2":"mg","alpha3":"mlg","name":"Malagasy","name2":"Malagasy","nativeName":"Malagasy","family":"Austronesian"},{"alpha2":"mh","alpha3":"mah","name":"Marshallese","name2":"Marshallese","nativeName":"Kajin Majel / Ebon","family":"Austronesian"},{"alpha2":"mi","alpha3":"mri","name":"Māori","name2":"Maori","nativeName":"Māori","family":"Austronesian"},{"alpha2":"mk","alpha3":"mkd","name":"Macedonian","name2":"Macedonian","nativeName":"Македонски","family":"Indo-European"},{"alpha2":"ml","alpha3":"mal","name":"Malayalam","name2":"Malayalam","nativeName":"മലയാളം","family":"Dravidian"},{"alpha2":"mn","alpha3":"mon","name":"Mongolian","name2":"Mongolian","nativeName":"Монгол","family":"Mongolic"},{"alpha2":"mr","alpha3":"mar","name":"Marathi (Marāṭhī)","name2":"Marathi","nativeName":"मराठी","family":"Indo-European"},{"alpha2":"ms","alpha3":"msa","name":"Malay","name2":"Malay","nativeName":"Bahasa Melayu","family":"Austronesian"},{"alpha2":"mt","alpha3":"mlt","name":"Maltese","name2":"Maltese","nativeName":"bil-Malti","family":"Afro-Asiatic"},{"alpha2":"my","alpha3":"mya","name":"Burmese","name2":"Burmese","nativeName":"မြန်မာစာ","family":"Sino-Tibetan"},{"alpha2":"na","alpha3":"nau","name":"Nauruan","name2":"Nauruan","nativeName":"Dorerin Naoero","family":"Austronesian"},{"alpha2":"nb","alpha3":"nob","name":"Norwegian Bokmål","name2":"Norwegian Bokmål","nativeName":"Norsk bokmål","family":"Indo-European"},{"alpha2":"nd","alpha3":"nde","name":"Northern Ndebele","name2":"North Ndebele","nativeName":"Sindebele","family":"Niger–Congo"},{"alpha2":"ne","alpha3":"nep","name":"Nepali","name2":"Nepali","nativeName":"नेपाली","family":"Indo-European"},{"alpha2":"ng","alpha3":"ndo","name":"Ndonga","name2":"Ndonga","nativeName":"Oshiwambo","family":"Niger–Congo"},{"alpha2":"nl","alpha3":"nld","name":"Dutch","name2":"Dutch","nativeName":"Nederlands","family":"Indo-European"},{"alpha2":"nn","alpha3":"nno","name":"Norwegian Nynorsk","name2":"Norwegian Nynorsk","nativeName":"Norsk nynorsk","family":"Indo-European"},{"alpha2":"no","alpha3":"nor","name":"Norwegian","name2":"Norwegian","nativeName":"Norsk","family":"Indo-European"},{"alpha2":"nr","alpha3":"nbl","name":"Southern Ndebele","name2":"South Ndebele","nativeName":"isiNdebele","family":"Niger–Congo"},{"alpha2":"nv","alpha3":"nav","name":"Navajo, Navaho","name2":"Navajo","nativeName":"Diné bizaad","family":"Dené–Yeniseian"},{"alpha2":"ny","alpha3":"nya","name":"Chichewa, Chewa, Nyanja","name2":"Chichewa","nativeName":"Chi-Chewa","family":"Niger–Congo"},{"alpha2":"oc","alpha3":"oci","name":"Occitan","name2":"Occitan","nativeName":"Occitan","family":"Indo-European"},{"alpha2":"oj","alpha3":"oji","name":"Ojibwe, Ojibwa","name2":"Ojibwa","nativeName":"ᐊᓂᔑᓈᐯᒧᐎᓐ / Anishinaabemowin","family":"Algonquian"},{"alpha2":"om","alpha3":"orm","name":"Oromo","name2":"Oromo","nativeName":"Oromoo","family":"Afro-Asiatic"},{"alpha2":"or","alpha3":"ori","name":"Oriya","name2":"Oriya","nativeName":"ଓଡ଼ିଆ","family":"Indo-European"},{"alpha2":"os","alpha3":"oss","name":"Ossetian, Ossetic","name2":"Ossetian / Ossetic","nativeName":"Иронау","family":"Indo-European"},{"alpha2":"pa","alpha3":"pan","name":"(Eastern) Punjabi","name2":"Panjabi / Punjabi","nativeName":"ਪੰਜਾਬੀ / पंजाबी / پنجابي","family":"Indo-European"},{"alpha2":"pi","alpha3":"pli","name":"Pāli","name2":"Pali","nativeName":"Pāli / पाऴि","family":"Indo-European"},{"alpha2":"pl","alpha3":"pol","name":"Polish","name2":"Polish","nativeName":"Polski","family":"Indo-European"},{"alpha2":"ps","alpha3":"pus","name":"Pashto, Pushto","name2":"Pashto","nativeName":"پښتو","family":"Indo-European"},{"alpha2":"pt","alpha3":"por","name":"Portuguese","name2":"Portuguese","nativeName":"Português","family":"Indo-European"},{"alpha2":"qu","alpha3":"que","name":"Quechua","name2":"Quechua","nativeName":"Runa Simi","family":"Quechuan"},{"alpha2":"rm","alpha3":"roh","name":"Romansh","name2":"Raeto Romance","nativeName":"Rumantsch","family":"Indo-European"},{"alpha2":"rn","alpha3":"run","name":"Kirundi","name2":"Kirundi","nativeName":"Kirundi","family":"Niger–Congo"},{"alpha2":"ro","alpha3":"ron","name":"Romanian","name2":"Romanian","nativeName":"Română","family":"Indo-European"},{"alpha2":"ru","alpha3":"rus","name":"Russian","name2":"Russian","nativeName":"Русский","family":"Indo-European"},{"alpha2":"rw","alpha3":"kin","name":"Kinyarwanda","name2":"Rwandi","nativeName":"Kinyarwandi","family":"Niger–Congo"},{"alpha2":"sa","alpha3":"san","name":"Sanskrit (Saṁskṛta)","name2":"Sanskrit","nativeName":"संस्कृतम्","family":"Indo-European"},{"alpha2":"sc","alpha3":"srd","name":"Sardinian","name2":"Sardinian","nativeName":"Sardu","family":"Indo-European"},{"alpha2":"sd","alpha3":"snd","name":"Sindhi","name2":"Sindhi","nativeName":"सिनधि","family":"Indo-European"},{"alpha2":"se","alpha3":"sme","name":"Northern Sami","name2":"Northern Sami","nativeName":"Sámegiella","family":"Uralic"},{"alpha2":"sg","alpha3":"sag","name":"Sango","name2":"Sango","nativeName":"Sängö","family":"Creole"},{"alpha2":"si","alpha3":"sin","name":"Sinhalese, Sinhala","name2":"Sinhalese","nativeName":"සිංහල","family":"Indo-European"},{"alpha2":"sk","alpha3":"slk","name":"Slovak","name2":"Slovak","nativeName":"Slovenčina","family":"Indo-European"},{"alpha2":"sl","alpha3":"slv","name":"Slovene","name2":"Slovenian","nativeName":"Slovenščina","family":"Indo-European"},{"alpha2":"sm","alpha3":"smo","name":"Samoan","name2":"Samoan","nativeName":"Gagana Samoa","family":"Austronesian"},{"alpha2":"sn","alpha3":"sna","name":"Shona","name2":"Shona","nativeName":"chiShona","family":"Niger–Congo"},{"alpha2":"so","alpha3":"som","name":"Somali","name2":"Somalia","nativeName":"Soomaaliga","family":"Afro-Asiatic"},{"alpha2":"sq","alpha3":"sqi","name":"Albanian","name2":"Albanian","nativeName":"Shqip","family":"Indo-European"},{"alpha2":"sr","alpha3":"srp","name":"Serbian","name2":"Serbian","nativeName":"Српски","family":"Indo-European"},{"alpha2":"ss","alpha3":"ssw","name":"Swati","name2":"Swati","nativeName":"SiSwati","family":"Niger–Congo"},{"alpha2":"st","alpha3":"sot","name":"Southern Sotho","name2":"Southern Sotho","nativeName":"Sesotho","family":"Niger–Congo"},{"alpha2":"su","alpha3":"sun","name":"Sundanese","name2":"Sundanese","nativeName":"Basa Sunda","family":"Austronesian"},{"alpha2":"sv","alpha3":"swe","name":"Swedish","name2":"Swedish","nativeName":"Svenska","family":"Indo-European"},{"alpha2":"sw","alpha3":"swa","name":"Swahili","name2":"Swahili","nativeName":"Kiswahili","family":"Niger–Congo"},{"alpha2":"ta","alpha3":"tam","name":"Tamil","name2":"Tamil","nativeName":"தமிழ்","family":"Dravidian"},{"alpha2":"te","alpha3":"tel","name":"Telugu","name2":"Telugu","nativeName":"తెలుగు","family":"Dravidian"},{"alpha2":"tg","alpha3":"tgk","name":"Tajik","name2":"Tajik","nativeName":"Тоҷикӣ","family":"Indo-European"},{"alpha2":"th","alpha3":"tha","name":"Thai","name2":"Thai","nativeName":"ไทย / Phasa Thai","family":"Tai–Kadai"},{"alpha2":"ti","alpha3":"tir","name":"Tigrinya","name2":"Tigrinya","nativeName":"ትግርኛ","family":"Afro-Asiatic"},{"alpha2":"tk","alpha3":"tuk","name":"Turkmen","name2":"Turkmen","nativeName":"Туркмен / تركمن","family":"Turkic"},{"alpha2":"tl","alpha3":"tgl","name":"Tagalog","name2":"Tagalog / Filipino","nativeName":"Tagalog","family":"Austronesian"},{"alpha2":"tn","alpha3":"tsn","name":"Tswana","name2":"Tswana","nativeName":"Setswana","family":"Niger–Congo"},{"alpha2":"to","alpha3":"ton","name":"Tonga (Tonga Islands)","name2":"Tonga","nativeName":"Lea Faka-Tonga","family":"Austronesian"},{"alpha2":"tr","alpha3":"tur","name":"Turkish","name2":"Turkish","nativeName":"Türkçe","family":"Turkic"},{"alpha2":"ts","alpha3":"tso","name":"Tsonga","name2":"Tsonga","nativeName":"Xitsonga","family":"Niger–Congo"},{"alpha2":"tt","alpha3":"tat","name":"Tatar","name2":"Tatar","nativeName":"Tatarça","family":"Turkic"},{"alpha2":"tw","alpha3":"twi","name":"Twi","name2":"Twi","nativeName":"Twi","family":"Niger–Congo"},{"alpha2":"ty","alpha3":"tah","name":"Tahitian","name2":"Tahitian","nativeName":"Reo Mā`ohi","family":"Austronesian"},{"alpha2":"ug","alpha3":"uig","name":"Uyghur","name2":"Uyghur","nativeName":"Uyƣurqə / ئۇيغۇرچە","family":"Turkic"},{"alpha2":"uk","alpha3":"ukr","name":"Ukrainian","name2":"Ukrainian","nativeName":"Українська","family":"Indo-European"},{"alpha2":"ur","alpha3":"urd","name":"Urdu","name2":"Urdu","nativeName":"اردو","family":"Indo-European"},{"alpha2":"uz","alpha3":"uzb","name":"Uzbek","name2":"Uzbek","nativeName":"Ўзбек","family":"Turkic"},{"alpha2":"ve","alpha3":"ven","name":"Venda","name2":"Venda","nativeName":"Tshivenḓa","family":"Niger–Congo"},{"alpha2":"vi","alpha3":"vie","name":"Vietnamese","name2":"Vietnamese","nativeName":"Tiếng Việt","family":"Austroasiatic"},{"alpha2":"vo","alpha3":"vol","name":"Volapük","name2":"Volapük","nativeName":"Volapük","family":"Constructed"},{"alpha2":"wa","alpha3":"wln","name":"Walloon","name2":"Walloon","nativeName":"Walon","family":"Indo-European"},{"alpha2":"wo","alpha3":"wol","name":"Wolof","name2":"Wolof","nativeName":"Wollof","family":"Niger–Congo"},{"alpha2":"xh","alpha3":"xho","name":"Xhosa","name2":"Xhosa","nativeName":"isiXhosa","family":"Niger–Congo"},{"alpha2":"yi","alpha3":"yid","name":"Yiddish","name2":"Yiddish","nativeName":"ייִדיש","family":"Indo-European"},{"alpha2":"yo","alpha3":"yor","name":"Yoruba","name2":"Yoruba","nativeName":"Yorùbá","family":"Niger–Congo"},{"alpha2":"za","alpha3":"zha","name":"Zhuang, Chuang","name2":"Zhuang","nativeName":"Cuengh / Tôô / 壮语","family":"Tai–Kadai"},{"alpha2":"zh","alpha3":"zho","name":"Chinese","name2":"Chinese","nativeName":"中文","family":"Sino-Tibetan"},{"alpha2":"zu","alpha3":"zul","name":"Zulu","name2":"Zulu","nativeName":"isiZulu","family":"Niger–Congo"}]